[{"OBJECT_NAME":"ONEWEB-0269","OBJECT_ID":"2021-060W","EPOCH":"2026-03-09T21:56:15.563328","MEAN_MOTION":13.16592945,"ECCENTRICITY":0.00014435,"INCLINATION":87.8994,"RA_OF_ASC_NODE":248.5392,"ARG_OF_PERICENTER":91.3563,"MEAN_ANOMALY":268.7733,"EPHEMERIS_TYPE":0,"CLASSIFICATION_TYPE":"U","NORAD_CAT_ID":48987,"ELEMENT_SET_NO":999,"REV_AT_EPOCH":22656,"BSTAR":-0.0004078972,"MEAN_MOTION_DOT":-1.43e-6,"MEAN_MOTION_DDOT":0},{"OBJECT_NAME":"METEOR 3-5","OBJECT_ID":"1991-056A","EPOCH":"2026-03-09T21:56:34.066752","MEAN_MOTION":13.17156023,"ECCENTRICITY":0.00136387,"INCLINATION":82.5569,"RA_OF_ASC_NODE":209.4978,"ARG_OF_PERICENTER":30.0209,"MEAN_ANOMALY":330.1692,"EPHEMERIS_TYPE":0,"CLASSIFICATION_TYPE":"U","NORAD_CAT_ID":21655,"ELEMENT_SET_NO":999,"REV_AT_EPOCH":66150,"BSTAR":0.00042950238,"MEAN_MOTION_DOT":1.78e-6,"MEAN_MOTION_DDOT":0}]
